COSMOS 1933             
1 18958U 88020A   26037.54163427  .00005591  00000+0  27584-3 0  9997
2 18958  82.5122 281.7286 0003300 329.8139  30.2904 15.17716216 45507
SL-3 R/B                
1 19046U 88032B   26037.58823534  .00007457  00000+0  35144-3 0  9999
2 19046  97.5152  20.9706 0025734 346.9466  13.1099 15.19502153 47381
SL-16 R/B               
1 19120U 88039B   26037.62438038 -.00000077  00000+0 -13518-4 0  9990
2 19120  71.0150 134.2376 0020853  21.8415 338.3594 14.19611664953971
COSMOS 1953             
1 19210U 88050A   26037.39244317  .00012386  00000+0  45310-3 0  9990
2 19210  82.5092 189.7019 0010518 231.5715 128.4581 15.27883581 33008
SL-8 R/B                
1 19257U 88053B   26037.65589463  .00000341  00000+0  11906-3 0  9999
2 19257  74.0477 169.6633 0020308 354.8150 106.0663 14.38896878972134
COSMOS 1975             
1 19573U 88093A   26037.28673374  .00010150  00000+0  37544-3 0  9993
2 19573  82.5225 149.1850 0010375 281.9908  78.0168 15.27509889 14618
SL-14 R/B               
1 19574U 88093B   26037.62419628  .00000569  00000+0  62597-4 0  9992
2 19574  82.5282  71.2148 0021767 137.8042 345.3903 14.85621912996422
SL-16 R/B               
1 19650U 88102B   26037.61361246  .00000097  00000+0  73165-4 0  9998
2 19650  70.9970 216.8800 0012345  52.9971 307.2280 14.16146329922493
INTERCOSMOS 24          
1 20261U 89080A   26037.19033587  .00000709  00000+0  20511-3 0  9997
2 20261  82.6070 124.9056 1188199   5.9628 355.4261 12.59515321662835
SL-14 R/B               
1 20262U 89080C   26037.42898560  .00000488  00000+0  14807-3 0  9999
2 20262  82.5941 193.2545 1229437 256.2390  89.9190 12.50456357656244
DELTA 1 R/B             
1 20323U 89089B   26037.58123641  .00000521  00000+0  13773-3 0  9993
2 20323  97.0727 249.9630 0068098 220.1315 139.4843 14.50636713891222
ARIANE 40 R/B           
1 20443U 90005H   26037.61181038  .00000374  00000+0  13262-3 0  9993
2 20443  98.3151  99.1886 0008995 301.5058  58.5251 14.39849495888338
