CCSDS_OMM_VERS = 2.0
CREATION_DATE  = 
ORIGINATOR     = 

OBJECT_NAME    = COSMOS 1933
OBJECT_ID      = 1988-020A
CENTER_NAME    = EARTH
REF_FRAME      = TEME
TIME_SYSTEM    = UTC
MEAN_ELEMENT_THEORY = SGP/SGP4

EPOCH          = 2026-02-06T12:59:57.200928
MEAN_MOTION    = 15.17716216
ECCENTRICITY   = .00033007
INCLINATION    = 82.5122
RA_OF_ASC_NODE = 281.7286
ARG_OF_PERICENTER = 329.8139
MEAN_ANOMALY   = 30.2904

EPHEMERIS_TYPE = 0
CLASSIFICATION_TYPE = U
NORAD_CAT_ID   = 18958
ELEMENT_SET_NO = 999
REV_AT_EPOCH   = 4550
BSTAR          = .27584449E-3
MEAN_MOTION_DOT = .5591E-4
MEAN_MOTION_DDOT = 0

CCSDS_OMM_VERS = 2.0
CREATION_DATE  = 
ORIGINATOR     = 

OBJECT_NAME    = SL-3 R/B
OBJECT_ID      = 1988-032B
CENTER_NAME    = EARTH
REF_FRAME      = TEME
TIME_SYSTEM    = UTC
MEAN_ELEMENT_THEORY = SGP/SGP4

EPOCH          = 2026-02-06T14:07:03.533376
MEAN_MOTION    = 15.19502153
ECCENTRICITY   = .00257344
INCLINATION    = 97.5152
RA_OF_ASC_NODE = 20.9706
ARG_OF_PERICENTER = 346.9466
MEAN_ANOMALY   = 13.1099

EPHEMERIS_TYPE = 0
CLASSIFICATION_TYPE = U
NORAD_CAT_ID   = 19046
ELEMENT_SET_NO = 999
REV_AT_EPOCH   = 4738
BSTAR          = .35144126E-3
MEAN_MOTION_DOT = .7457E-4
MEAN_MOTION_DDOT = 0

CCSDS_OMM_VERS = 2.0
CREATION_DATE  = 
ORIGINATOR     = 

OBJECT_NAME    = SL-16 R/B
OBJECT_ID      = 1988-039B
CENTER_NAME    = EARTH
REF_FRAME      = TEME
TIME_SYSTEM    = UTC
MEAN_ELEMENT_THEORY = SGP/SGP4

EPOCH          = 2026-02-06T14:59:06.464832
MEAN_MOTION    = 14.19611664
ECCENTRICITY   = .00208532
INCLINATION    = 71.0150
RA_OF_ASC_NODE = 134.2376
ARG_OF_PERICENTER = 21.8415
MEAN_ANOMALY   = 338.3594

EPHEMERIS_TYPE = 0
CLASSIFICATION_TYPE = U
NORAD_CAT_ID   = 19120
ELEMENT_SET_NO = 999
REV_AT_EPOCH   = 95397
BSTAR          = -.13517503E-4
MEAN_MOTION_DOT = -.77E-6
MEAN_MOTION_DDOT = 0

CCSDS_OMM_VERS = 2.0
CREATION_DATE  = 
ORIGINATOR     = 

OBJECT_NAME    = COSMOS 1953
OBJECT_ID      = 1988-050A
CENTER_NAME    = EARTH
REF_FRAME      = TEME
TIME_SYSTEM    = UTC
MEAN_ELEMENT_THEORY = SGP/SGP4

EPOCH          = 2026-02-06T09:25:07.089888
MEAN_MOTION    = 15.27883581
ECCENTRICITY   = .00105183
INCLINATION    = 82.5092
RA_OF_ASC_NODE = 189.7019
ARG_OF_PERICENTER = 231.5715
MEAN_ANOMALY   = 128.4581

EPHEMERIS_TYPE = 0
CLASSIFICATION_TYPE = U
NORAD_CAT_ID   = 19210
ELEMENT_SET_NO = 999
REV_AT_EPOCH   = 3300
BSTAR          = .45309726E-3
MEAN_MOTION_DOT = .12386E-3
MEAN_MOTION_DDOT = 0

CCSDS_OMM_VERS = 2.0
CREATION_DATE  = 
ORIGINATOR     = 

OBJECT_NAME    = SL-8 R/B
OBJECT_ID      = 1988-053B
CENTER_NAME    = EARTH
REF_FRAME      = TEME
TIME_SYSTEM    = UTC
MEAN_ELEMENT_THEORY = SGP/SGP4

EPOCH          = 2026-02-06T15:44:29.296032
MEAN_MOTION    = 14.38896878
ECCENTRICITY   = .00203085
INCLINATION    = 74.0477
RA_OF_ASC_NODE = 169.6633
ARG_OF_PERICENTER = 354.8150
MEAN_ANOMALY   = 106.0663

EPHEMERIS_TYPE = 0
CLASSIFICATION_TYPE = U
NORAD_CAT_ID   = 19257
ELEMENT_SET_NO = 999
REV_AT_EPOCH   = 97213
BSTAR          = .11905956E-3
MEAN_MOTION_DOT = .341E-5
MEAN_MOTION_DDOT = 0

CCSDS_OMM_VERS = 2.0
CREATION_DATE  = 
ORIGINATOR     = 

OBJECT_NAME    = COSMOS 1975
OBJECT_ID      = 1988-093A
CENTER_NAME    = EARTH
REF_FRAME      = TEME
TIME_SYSTEM    = UTC
MEAN_ELEMENT_THEORY = SGP/SGP4

EPOCH          = 2026-02-06T06:52:53.795136
MEAN_MOTION    = 15.27509889
ECCENTRICITY   = .00103757
INCLINATION    = 82.5225
RA_OF_ASC_NODE = 149.1850
ARG_OF_PERICENTER = 281.9908
MEAN_ANOMALY   = 78.0168

EPHEMERIS_TYPE = 0
CLASSIFICATION_TYPE = U
NORAD_CAT_ID   = 19573
ELEMENT_SET_NO = 999
REV_AT_EPOCH   = 1461
BSTAR          = .37544293E-3
MEAN_MOTION_DOT = .1015E-3
MEAN_MOTION_DDOT = 0

CCSDS_OMM_VERS = 2.0
CREATION_DATE  = 
ORIGINATOR     = 

OBJECT_NAME    = SL-14 R/B
OBJECT_ID      = 1988-093B
CENTER_NAME    = EARTH
REF_FRAME      = TEME
TIME_SYSTEM    = UTC
MEAN_ELEMENT_THEORY = SGP/SGP4

EPOCH          = 2026-02-06T14:58:50.558592
MEAN_MOTION    = 14.85621912
ECCENTRICITY   = .00217678
INCLINATION    = 82.5282
RA_OF_ASC_NODE = 71.2148
ARG_OF_PERICENTER = 137.8042
MEAN_ANOMALY   = 345.3903

EPHEMERIS_TYPE = 0
CLASSIFICATION_TYPE = U
NORAD_CAT_ID   = 19574
ELEMENT_SET_NO = 999
REV_AT_EPOCH   = 99642
BSTAR          = .62597422E-4
MEAN_MOTION_DOT = .569E-5
MEAN_MOTION_DDOT = 0

CCSDS_OMM_VERS = 2.0
CREATION_DATE  = 
ORIGINATOR     = 

OBJECT_NAME    = SL-16 R/B
OBJECT_ID      = 1988-102B
CENTER_NAME    = EARTH
REF_FRAME      = TEME
TIME_SYSTEM    = UTC
MEAN_ELEMENT_THEORY = SGP/SGP4

EPOCH          = 2026-02-06T14:43:36.116544
MEAN_MOTION    = 14.16146329
ECCENTRICITY   = .00123456
INCLINATION    = 70.9970
RA_OF_ASC_NODE = 216.8800
ARG_OF_PERICENTER = 52.9971
MEAN_ANOMALY   = 307.2280

EPHEMERIS_TYPE = 0
CLASSIFICATION_TYPE = U
NORAD_CAT_ID   = 19650
ELEMENT_SET_NO = 999
REV_AT_EPOCH   = 92249
BSTAR          = .7316469E-4
MEAN_MOTION_DOT = .97E-6
MEAN_MOTION_DDOT = 0

CCSDS_OMM_VERS = 2.0
CREATION_DATE  = 
ORIGINATOR     = 

OBJECT_NAME    = INTERCOSMOS 24
OBJECT_ID      = 1989-080A
CENTER_NAME    = EARTH
REF_FRAME      = TEME
TIME_SYSTEM    = UTC
MEAN_ELEMENT_THEORY = SGP/SGP4

EPOCH          = 2026-02-06T04:34:05.019168
MEAN_MOTION    = 12.59515321
ECCENTRICITY   = .11881999
INCLINATION    = 82.6070
RA_OF_ASC_NODE = 124.9056
ARG_OF_PERICENTER = 5.9628
MEAN_ANOMALY   = 355.4261

EPHEMERIS_TYPE = 0
CLASSIFICATION_TYPE = U
NORAD_CAT_ID   = 20261
ELEMENT_SET_NO = 999
REV_AT_EPOCH   = 66283
BSTAR          = .2051134E-3
MEAN_MOTION_DOT = .709E-5
MEAN_MOTION_DDOT = 0

CCSDS_OMM_VERS = 2.0
CREATION_DATE  = 
ORIGINATOR     = 

OBJECT_NAME    = SL-14 R/B
OBJECT_ID      = 1989-080C
CENTER_NAME    = EARTH
REF_FRAME      = TEME
TIME_SYSTEM    = UTC
MEAN_ELEMENT_THEORY = SGP/SGP4

EPOCH          = 2026-02-06T10:17:44.355840
MEAN_MOTION    = 12.50456357
ECCENTRICITY   = .12294377
INCLINATION    = 82.5941
RA_OF_ASC_NODE = 193.2545
ARG_OF_PERICENTER = 256.2390
MEAN_ANOMALY   = 89.9190

EPHEMERIS_TYPE = 0
CLASSIFICATION_TYPE = U
NORAD_CAT_ID   = 20262
ELEMENT_SET_NO = 999
REV_AT_EPOCH   = 65624
BSTAR          = .14806793E-3
MEAN_MOTION_DOT = .488E-5
MEAN_MOTION_DDOT = 0

CCSDS_OMM_VERS = 2.0
CREATION_DATE  = 
ORIGINATOR     = 

OBJECT_NAME    = DELTA 1 R/B
OBJECT_ID      = 1989-089B
CENTER_NAME    = EARTH
REF_FRAME      = TEME
TIME_SYSTEM    = UTC
MEAN_ELEMENT_THEORY = SGP/SGP4

EPOCH          = 2026-02-06T13:56:58.825824
MEAN_MOTION    = 14.50636713
ECCENTRICITY   = .0068098
INCLINATION    = 97.0727
RA_OF_ASC_NODE = 249.9630
ARG_OF_PERICENTER = 220.1315
MEAN_ANOMALY   = 139.4843

EPHEMERIS_TYPE = 0
CLASSIFICATION_TYPE = U
NORAD_CAT_ID   = 20323
ELEMENT_SET_NO = 999
REV_AT_EPOCH   = 89122
BSTAR          = .13772545E-3
MEAN_MOTION_DOT = .521E-5
MEAN_MOTION_DDOT = 0

CCSDS_OMM_VERS = 2.0
CREATION_DATE  = 
ORIGINATOR     = 

OBJECT_NAME    = ARIANE 40 R/B
OBJECT_ID      = 1990-005H
CENTER_NAME    = EARTH
REF_FRAME      = TEME
TIME_SYSTEM    = UTC
MEAN_ELEMENT_THEORY = SGP/SGP4

EPOCH          = 2026-02-06T14:41:00.416832
MEAN_MOTION    = 14.39849495
ECCENTRICITY   = .00089954
INCLINATION    = 98.3151
RA_OF_ASC_NODE = 99.1886
ARG_OF_PERICENTER = 301.5058
MEAN_ANOMALY   = 58.5251

EPHEMERIS_TYPE = 0
CLASSIFICATION_TYPE = U
NORAD_CAT_ID   = 20443
ELEMENT_SET_NO = 999
REV_AT_EPOCH   = 88833
BSTAR          = .13262471E-3
MEAN_MOTION_DOT = .374E-5
MEAN_MOTION_DDOT = 0

